NORAD_CAT_ID,OBJECT_NAME,OBJECT_TYPE,EPOCH,MEAN_MOTION,ECCENTRICITY,INCLINATION,RA_OF_ASC_NODE,ARG_OF_PERICENTER,MEAN_ANOMALY,BSTAR,MEAN_MOTION_DOT,MEAN_MOTION_DDOT,TLE_LINE0,TLE_LINE1,TLE_LINE2,SEMIMAJOR_AXIS,PERIOD,APOGEE,PERIGEE,DECAYED
52666.0,STARLINK-4079,PAYLOAD,2024-07-09 11:34:22,15.08841224,0.0001298,53.2178,4.0852,87.1502,272.9639,-3.2579e-05,-8.06e-06,0.0,0 STARLINK-4079,1 52666U 22053L   24191.48220489 -.00000806  00000-0 -32579-4 0  9997,2 52666  53.2178   4.0852 0001298  87.1502 272.9639 15.08841224119234,6917.877,95.437,540.64,538.844,0.0
52666.0,STARLINK-4079,PAYLOAD,2024-07-09 17:55:54,15.08846379,0.0001255,53.2183,2.8963,85.8042,274.3094,1.411e-05,-6.3e-07,0.0,0 STARLINK-4079,1 52666U 22053L   24191.74716327 -.00000063  00000-0  14110-4 0  9992,2 52666  53.2183   2.8963 0001255  85.8042 274.3094 15.08846379119277,6917.861,95.437,540.594,538.858,0.0
52666.0,STARLINK-4079,PAYLOAD,2024-07-10 05:03:36,15.0884674,0.0001264,53.2183,0.8148,87.631,272.4827,4.9091e-06,-2.1e-06,0.0,0 STARLINK-4079,1 52666U 22053L   24192.21084178 -.00000210  00000-0  49091-5 0  9998,2 52666  53.2183   0.8148 0001264  87.6310 272.4827 15.08846740119341,6917.86,95.437,540.599,538.85,0.0
52666.0,STARLINK-4079,PAYLOAD,2024-07-10 17:46:41,15.08841618,0.0001292,53.2183,358.4356,87.7863,272.3278,8.2161e-05,1.02e-05,0.0,0 STARLINK-4079,1 52666U 22053L   24192.74076387  .00001020  00000-0  82161-4 0  9992,2 52666  53.2183 358.4356 0001292  87.7863 272.3278 15.08841618119426,6917.875,95.437,540.634,538.847,0.0
52666.0,STARLINK-4079,PAYLOAD,2024-07-11 14:26:42,15.08838442,0.000114,53.217,354.5694,89.7815,270.3307,7.5631e-05,9.16e-06,0.0,0 STARLINK-4079,1 52666U 22053L   24193.60188656  .00000916  00000-0  75631-4 0  9998,2 52666  53.2170 354.5694 0001140  89.7815 270.3307 15.08838442119551,6917.885,95.438,540.539,538.962,0.0
52666.0,STARLINK-4079,PAYLOAD,2024-07-12 03:09:47,15.08842942,0.0001107,53.2173,352.1906,89.4511,270.6608,7.6096e-05,9.24e-06,0.0,0 STARLINK-4079,1 52666U 22053L   24194.13180364  .00000924  00000-0  76096-4 0  9990,2 52666  53.2173 352.1906 0001107  89.4511 270.6608 15.08842942119633,6917.871,95.437,540.502,538.971,0.0
52666.0,STARLINK-4079,PAYLOAD,2024-07-12 11:06:44,15.08831246,0.0001148,53.2176,350.7038,83.254,276.8583,3.8245e-05,3.21e-06,0.0,0 STARLINK-4079,1 52666U 22053L   24194.46301356  .00000321  00000-0  38245-4 0  9997,2 52666  53.2176 350.7038 0001148  83.2540 276.8583 15.08831246119685,6917.907,95.438,540.566,538.978,0.0
52666.0,STARLINK-4079,PAYLOAD,2024-07-12 14:17:30,15.0883691,0.0001129,53.2208,350.1115,98.9417,261.1703,9.459e-05,1.218e-05,0.0,0 STARLINK-4079,1 52666U 22053L   24194.59548957  .00001218  00000-0  94590-4 0  9992,2 52666  53.2208 350.1115 0001129  98.9417 261.1703 15.08836910119703,6917.89,95.438,540.536,538.974,0.0
52666.0,STARLINK-4079,PAYLOAD,2024-07-12 17:28:16,15.08839835,0.0001129,53.2201,349.5181,92.6955,267.4167,0.00010621,1.403e-05,0.0,0 STARLINK-4079,1 52666U 22053L   24194.72796831  .00001403  00000-0  10621-3 0  9991,2 52666  53.2201 349.5181 0001129  92.6955 267.4167 15.08839835119723,6917.881,95.438,540.527,538.965,0.0
52666.0,STARLINK-4079,PAYLOAD,2024-07-13 14:08:17,15.08839904,0.0001428,53.2201,345.6534,110.2062,249.9083,0.00010218,1.339e-05,0.0,0 STARLINK-4079,1 52666U 22053L   24195.58909026  .00001339  00000-0  10218-3 0  9998,2 52666  53.2201 345.6534 0001428 110.2062 249.9083 15.08839904119853,6917.881,95.438,540.734,538.758,0.0
52666.0,STARLINK-4079,PAYLOAD,2024-07-13 17:19:03,15.08840496,0.0001494,53.2197,345.0588,110.3415,249.7738,9.4644e-05,1.219e-05,0.0,0 STARLINK-4079,1 52666U 22053L   24195.72156860  .00001219  00000-0  94644-4 0  9997,2 52666  53.2197 345.0588 0001494 110.3415 249.7738 15.08840496119871,6917.879,95.438,540.777,538.71,0.0
52666.0,STARLINK-4079,PAYLOAD,2024-07-14 02:51:22,15.08841053,0.000137,53.2194,343.2739,102.4857,257.6289,8.6566e-05,1.09e-05,0.0,0 STARLINK-4079,1 52666U 22053L   24196.11900873  .00001090  00000-0  86566-4 0  9993,2 52666  53.2194 343.2739 0001370 102.4857 257.6289 15.08841053119937,6917.877,95.437,540.69,538.794,0.0
52666.0,STARLINK-4079,PAYLOAD,2024-07-14 13:59:04,15.08844094,0.0001435,53.2193,341.1924,101.7371,258.3783,0.00014374,2.001e-05,0.0,0 STARLINK-4079,1 52666U 22053L   24196.58268727  .00002001  00000-0  14374-3 0  9999,2 52666  53.2193 341.1924 0001435 101.7371 258.3783 15.08844094120009,6917.868,95.437,540.726,538.74,0.0
52666.0,STARLINK-4079,PAYLOAD,2024-07-14 18:45:12,15.08856719,0.0001202,53.2185,340.2993,108.9141,251.1982,0.00028457,4.246e-05,0.0,0 STARLINK-4079,1 52666U 22053L   24196.78139938  .00004246  00000-0  28457-3 0  9992,2 52666  53.2185 340.2993 0001202 108.9141 251.1982 15.08856719120034,6917.829,95.436,540.526,538.863,0.0
52666.0,STARLINK-4079,PAYLOAD,2024-07-15 02:42:09,15.08841759,0.0001259,53.2189,338.8133,89.9981,270.1156,5.691e-05,6.18e-06,0.0,0 STARLINK-4079,1 52666U 22053L   24197.11260731  .00000618  00000-0  56910-4 0  9991,2 52666  53.2189 338.8133 0001259  89.9981 270.1156 15.08841759120086,6917.875,95.437,540.611,538.869,0.0
52666.0,STARLINK-4079,PAYLOAD,2024-07-15 15:25:14,15.0883698,0.000122,53.2181,336.4341,86.5549,273.5582,3.7197e-05,3.04e-06,0.0,0 STARLINK-4079,1 52666U 22053L   24197.64253098  .00000304  00000-0  37197-4 0  9995,2 52666  53.2181 336.4341 0001220  86.5549 273.5582 15.08836980120163,6917.89,95.438,540.599,538.911,0.0
52666.0,STARLINK-4079,PAYLOAD,2024-07-16 08:54:28,15.08842835,0.0001322,53.2175,333.1633,85.0246,275.0897,9.9617e-05,1.298e-05,0.0,0 STARLINK-4079,1 52666U 22053L   24198.37116794  .00001298  00000-0  99617-4 0  9995,2 52666  53.2175 333.1633 0001322  85.0246 275.0897 15.08842835120279,6917.872,95.437,540.651,538.822,0.0
52666.0,STARLINK-4079,PAYLOAD,2024-07-16 13:40:38,15.08842845,0.0001333,53.2176,332.2711,85.3392,274.7753,9.9186e-05,1.291e-05,0.0,0 STARLINK-4079,1 52666U 22053L   24198.56988799  .00001291  00000-0  99186-4 0  9992,2 52666  53.2176 332.2711 0001333  85.3392 274.7753 15.08842845120306,6917.872,95.437,540.659,538.815,0.0
52666.0,STARLINK-4079,PAYLOAD,2024-07-16 15:16:01,15.0884866,0.0001352,53.2169,331.9718,91.0323,269.0825,5.9152e-05,6.54e-06,0.0,0 STARLINK-4079,1 52666U 22053L   24198.63612434  .00000654  00000-0  59152-4 0  9991,2 52666  53.2169 331.9718 0001352  91.0323 269.0825 15.08848660120319,6917.854,95.437,540.654,538.784,0.0
52666.0,STARLINK-4079,PAYLOAD,2024-07-17 11:56:02,15.08836308,0.0001509,53.2172,328.1053,99.7831,260.3332,8.5059e-05,1.066e-05,0.0,0 STARLINK-4079,1 52666U 22053L   24199.49725214  .00001066  00000-0  85059-4 0  9990,2 52666  53.2172 328.1053 0001509  99.7831 260.3332 15.08836308120443,6917.892,95.438,540.801,538.713,0.0
52666.0,STARLINK-4079,PAYLOAD,2024-07-17 13:31:25,15.08836845,0.0001433,53.218,327.8105,74.1788,285.9362,0.00010796,1.431e-05,0.0,0 STARLINK-4079,1 52666U 22053L   24199.56349390  .00001431  00000-0  10796-3 0  9996,2 52666  53.2180 327.8105 0001433  74.1788 285.9362 15.08836845120453,6917.89,95.438,540.746,538.764,0.0
52666.0,STARLINK-4079,PAYLOAD,2024-07-17 15:06:48,15.08841499,0.0001452,53.2186,327.5116,86.7062,273.4096,0.00011468,1.538e-05,0.0,0 STARLINK-4079,1 52666U 22053L   24199.62973117  .00001538  00000-0  11468-3 0  9998,2 52666  53.2186 327.5116 0001452  86.7062 273.4096 15.08841499120461,6917.876,95.437,540.745,538.736,0.0
52666.0,STARLINK-4079,PAYLOAD,2024-07-18 13:22:13,15.08836559,0.0001459,53.2188,323.3478,91.9243,268.1916,0.0001066,1.409e-05,0.0,0 STARLINK-4079,1 52666U 22053L   24200.55709597  .00001409  00000-0  10660-3 0  9992,2 52666  53.2188 323.3478 0001459  91.9243 268.1916 15.08836559120603,6917.891,95.438,540.765,538.747,0.0
52666.0,STARLINK-4079,PAYLOAD,2024-07-18 14:57:36,15.08839401,0.0001338,53.2181,323.0497,90.8188,269.2957,0.0001519,2.13e-05,0.0,0 STARLINK-4079,1 52666U 22053L   24200.62333449  .00002130  00000-0  15190-3 0  9994,2 52666  53.2181 323.0497 0001338  90.8188 269.2957 15.08839401120613,6917.882,95.438,540.673,538.822,0.0
52666.0,STARLINK-4079,PAYLOAD,2024-07-19 14:48:22,15.08851989,0.0001314,53.2183,318.5897,86.1537,273.9605,0.00029089,4.346e-05,0.0,0 STARLINK-4079,1 52666U 22053L   24201.61692982  .00004346  00000-0  29089-3 0  9997,2 52666  53.2183 318.5897 0001314  86.1537 273.9605 15.08851989120761,6917.844,95.437,540.618,538.8,0.0
52666.0,STARLINK-4079,PAYLOAD,2024-07-20 00:20:41,15.08842514,0.0001225,53.2176,316.8039,82.7809,277.3322,0.00014617,2.039e-05,0.0,0 STARLINK-4079,1 52666U 22053L   24202.01437226  .00002039  00000-0  14617-3 0  9998,2 52666  53.2176 316.8039 0001225  82.7809 277.3322 15.08842514120822,6917.873,95.437,540.585,538.89,0.0
52666.0,STARLINK-4079,PAYLOAD,2024-07-20 14:39:09,15.08844808,0.0001369,53.2198,314.1335,93.7933,266.3216,0.00011672,1.57e-05,0.0,0 STARLINK-4079,1 52666U 22053L   24202.61053136  .00001570  00000-0  11672-3 0  9995,2 52666  53.2198 314.1335 0001369  93.7933 266.3216 15.08844808120913,6917.866,95.437,540.678,538.784,0.0
52666.0,STARLINK-4079,PAYLOAD,2024-07-21 12:54:35,15.08830314,0.0001483,53.2182,309.9655,77.9405,282.1753,-0.00015893,-2.816e-05,0.0,0 STARLINK-4079,1 52666U 22053L   24203.53791155 -.00002816  00000-0 -15893-3 0  9992,2 52666  53.2182 309.9655 0001483  77.9405 282.1753 15.08830314121053,6917.91,95.438,540.801,538.749,0.0
52666.0,STARLINK-4079,PAYLOAD,2024-07-21 14:29:57,15.08838645,0.0001264,53.2176,309.6655,78.0425,282.0709,-2.0786e-05,-6.19e-06,0.0,0 STARLINK-4079,1 52666U 22053L   24203.60414190 -.00000619  00000-0 -20786-4 0  9998,2 52666  53.2176 309.6655 0001264  78.0425 282.0709 15.08838645121060,6917.885,95.438,540.624,538.875,0.0
52666.0,STARLINK-4079,PAYLOAD,2024-07-22 09:34:35,15.08840011,0.0001828,53.2195,306.0981,74.3345,285.7849,0.0001149,1.541e-05,0.0,0 STARLINK-4079,1 52666U 22053L   24204.39902222  .00001541  00000-0  11490-3 0  9997,2 52666  53.2195 306.0981 0001828  74.3345 285.7849 15.08840011121188,6917.88,95.438,541.01,538.481,0.0
